[{"OBJECT_NAME":"STARLINK-34096","OBJECT_ID":"2025-102X","EPOCH":"2026-03-09T12:16:41.946240","MEAN_MOTION":14.9833116,"ECCENTRICITY":0.00037929,"INCLINATION":70.0002,"RA_OF_ASC_NODE":114.9789,"ARG_OF_PERICENTER":267.5926,"MEAN_ANOMALY":92.4799,"EPHEMERIS_TYPE":0,"CLASSIFICATION_TYPE":"U","NORAD_CAT_ID":64043,"ELEMENT_SET_NO":999,"REV_AT_EPOCH":4581,"BSTAR":0.00029331627,"MEAN_MOTION_DOT":3.409e-5,"MEAN_MOTION_DDOT":0},{"OBJECT_NAME":"GB 2","OBJECT_ID":"1983-056D","EPOCH":"2026-03-09T14:43:25.991328","MEAN_MOTION":13.78053489,"ECCENTRICITY":0.0732375,"INCLINATION":63.3116,"RA_OF_ASC_NODE":172.1265,"ARG_OF_PERICENTER":130.2163,"MEAN_ANOMALY":236.5364,"EPHEMERIS_TYPE":0,"CLASSIFICATION_TYPE":"U","NORAD_CAT_ID":14144,"ELEMENT_SET_NO":999,"REV_AT_EPOCH":34222,"BSTAR":0.0006089,"MEAN_MOTION_DOT":4.982e-5,"MEAN_MOTION_DDOT":0}]
